NORAD_CAT_ID,OBJECT_NAME,OBJECT_TYPE,EPOCH,MEAN_MOTION,ECCENTRICITY,INCLINATION,RA_OF_ASC_NODE,ARG_OF_PERICENTER,MEAN_ANOMALY,BSTAR,MEAN_MOTION_DOT,MEAN_MOTION_DDOT,TLE_LINE0,TLE_LINE1,TLE_LINE2,SEMIMAJOR_AXIS,PERIOD,APOGEE,PERIGEE,DECAYED
55747.0,STARLINK-5539,PAYLOAD,2024-06-28 14:12:15,14.98331807,0.000319,69.9999,5.4866,270.8288,89.2506,0.00020106,2.307e-05,0.0,0 STARLINK-5539,1 55747U 23028G   24180.59184896  .00002307  00000-0  20106-3 0  9992,2 55747  69.9999   5.4866 0003190 270.8288  89.2506 14.98331807 73305,6950.187,96.107,574.269,569.835,0.0
55747.0,STARLINK-5539,PAYLOAD,2024-06-28 20:36:47,14.98339966,0.0003136,69.9998,4.8132,270.6782,89.4018,0.00029938,3.482e-05,0.0,0 STARLINK-5539,1 55747U 23028G   24180.85888328  .00003482  00000-0  29938-3 0  9999,2 55747  69.9998   4.8132 0003136 270.6782  89.4018 14.98339966 73348,6950.162,96.106,574.207,569.848,0.0
55747.0,STARLINK-5539,PAYLOAD,2024-06-28 22:12:55,14.98343323,0.0003133,70.0015,4.645,271.3559,88.7242,0.0004499,5.281e-05,0.0,0 STARLINK-5539,1 55747U 23028G   24180.92564631  .00005281  00000-0  44990-3 0  9999,2 55747  70.0015   4.6450 0003133 271.3559  88.7242 14.98343323 73353,6950.152,96.106,574.194,569.839,0.0
55747.0,STARLINK-5539,PAYLOAD,2024-06-29 12:38:09,14.98330528,0.0002883,70.0014,3.1298,269.2433,90.8396,0.00013448,1.512e-05,0.0,0 STARLINK-5539,1 55747U 23028G   24181.52649388  .00001512  00000-0  13448-3 0  9996,2 55747  70.0014   3.1298 0002883 269.2433  90.8396 14.98330528 73441,6950.191,96.107,574.06,570.053,0.0
55747.0,STARLINK-5539,PAYLOAD,2024-06-29 14:14:17,14.98329296,0.0003065,70.0015,2.962,271.3306,88.7502,0.00011976,1.336e-05,0.0,0 STARLINK-5539,1 55747U 23028G   24181.59325489  .00001336  00000-0  11976-3 0  9994,2 55747  70.0015   2.9620 0003065 271.3306  88.7502 14.98329296 73450,6950.195,96.107,574.19,569.93,0.0
55747.0,STARLINK-5539,PAYLOAD,2024-06-29 22:14:57,14.98333008,0.0003113,70.0018,2.1204,270.1774,89.9029,0.0001236,1.382e-05,0.0,0 STARLINK-5539,1 55747U 23028G   24181.92705274  .00001382  00000-0  12360-3 0  9994,2 55747  70.0018   2.1204 0003113 270.1774  89.9029 14.98333008 73502,6950.184,96.107,574.212,569.885,0.0
55747.0,STARLINK-5539,PAYLOAD,2024-06-30 14:16:17,14.9833796,0.0003013,70.0019,0.4371,271.1565,88.9249,0.00020589,2.365e-05,0.0,0 STARLINK-5539,1 55747U 23028G   24182.59465055  .00002365  00000-0  20589-3 0  9992,2 55747  70.0019   0.4371 0003013 271.1565  88.9249 14.98337960 73602,6950.168,96.106,574.127,569.939,0.0
55747.0,STARLINK-5539,PAYLOAD,2024-06-30 20:40:49,14.98341987,0.0002994,70.0019,359.7642,268.8928,91.1888,0.00031973,3.725e-05,0.0,0 STARLINK-5539,1 55747U 23028G   24182.86168819  .00003725  00000-0  31973-3 0  9990,2 55747  70.0019 359.7642 0002994 268.8928  91.1888 14.98341987 73649,6950.156,96.106,574.102,569.94,0.0
55747.0,STARLINK-5539,PAYLOAD,2024-06-30 22:16:57,14.98340507,0.0002867,70.0022,359.5958,271.5237,88.5593,0.00027761,3.222e-05,0.0,0 STARLINK-5539,1 55747U 23028G   24182.92844858  .00003222  00000-0  27761-3 0  9993,2 55747  70.0022 359.5958 0002867 271.5237  88.5593 14.98340507 73655,6950.16,96.106,574.018,570.033,0.0
55747.0,STARLINK-5539,PAYLOAD,2024-07-01 12:42:10,14.98331511,0.0002864,70.0019,358.0807,271.8814,88.2017,0.00019471,2.231e-05,0.0,0 STARLINK-5539,1 55747U 23028G   24183.52929209  .00002231  00000-0  19471-3 0  9992,2 55747  70.0019 358.0807 0002864 271.8814  88.2017 14.98331511 73742,6950.188,96.107,574.044,570.063,0.0
55747.0,STARLINK-5539,PAYLOAD,2024-07-01 14:18:18,14.98331187,0.0002881,70.0018,357.9124,271.6641,88.4188,0.00017898,2.043e-05,0.0,0 STARLINK-5539,1 55747U 23028G   24183.59605218  .00002043  00000-0  17898-3 0  9992,2 55747  70.0018 357.9124 0002881 271.6641  88.4188 14.98331187 73757,6950.189,96.107,574.057,570.052,0.0
55747.0,STARLINK-5539,PAYLOAD,2024-07-01 22:18:58,14.98335743,0.0002861,70.0019,357.0712,269.1461,90.937,0.00023113,2.666e-05,0.0,0 STARLINK-5539,1 55747U 23028G   24183.92984945  .00002666  00000-0  23113-3 0  9994,2 55747  70.0019 357.0712 0002861 269.1461  90.9370 14.98335743 73801,6950.175,96.107,574.029,570.052,0.0
55747.0,STARLINK-5539,PAYLOAD,2024-07-02 12:44:11,14.98333177,0.0002831,70.0022,355.5567,266.2122,93.8713,4.4132e-05,4.34e-06,0.0,0 STARLINK-5539,1 55747U 23028G   24184.53068950  .00000434  00000-0  44132-4 0  9997,2 55747  70.0022 355.5567 0002831 266.2122  93.8713 14.98333177 73896,6950.183,96.107,574.016,570.08,0.0
55747.0,STARLINK-5539,PAYLOAD,2024-07-02 14:20:19,14.98332321,0.0002795,70.002,355.388,265.6816,94.4024,-1.9636e-06,-1.16e-06,0.0,0 STARLINK-5539,1 55747U 23028G   24184.59744973 -.00000116  00000-0 -19636-5 0  9990,2 55747  70.0020 355.3880 0002795 265.6816  94.4024 14.98332321 73906,6950.186,96.107,573.993,570.108,0.0
55747.0,STARLINK-5539,PAYLOAD,2024-07-02 20:44:51,14.98333777,0.0002991,70.0008,354.7146,268.3984,91.6832,3.5625e-05,3.32e-06,0.0,0 STARLINK-5539,1 55747U 23028G   24184.86449027  .00000332  00000-0  35625-4 0  9995,2 55747  70.0008 354.7146 0002991 268.3984  91.6832 14.98333777 73940,6950.181,96.107,574.125,569.967,0.0
55747.0,STARLINK-5539,PAYLOAD,2024-07-03 12:46:13,14.98322686,0.0003105,70.0004,353.03,269.3262,90.7541,9.3199e-05,1.019e-05,0.0,0 STARLINK-5539,1 55747U 23028G   24185.53209542  .00001019  00000-0  93199-4 0  9999,2 55747  70.0004 353.0300 0003105 269.3262  90.7541 14.98322686 74044,6950.216,96.107,574.239,569.922,0.0
55747.0,STARLINK-5539,PAYLOAD,2024-07-03 20:46:53,14.98329471,0.0002959,70.0004,352.188,266.3719,93.7101,2.8024e-05,2.41e-06,0.0,0 STARLINK-5539,1 55747U 23028G   24185.86589264  .00000241  00000-0  28024-4 0  9998,2 55747  70.0004 352.1880 0002959 266.3719  93.7101 14.98329471 74096,6950.195,96.107,574.116,570.003,0.0
55747.0,STARLINK-5539,PAYLOAD,2024-07-04 12:48:13,14.98330467,0.000306,70.0002,350.504,266.9391,93.1418,6.1529e-05,6.41e-06,0.0,0 STARLINK-5539,1 55747U 23028G   24186.53349099  .00000641  00000-0  61529-4 0  9994,2 55747  70.0002 350.5040 0003060 266.9391  93.1418 14.98330467 74193,6950.191,96.107,574.183,569.93,0.0
55747.0,STARLINK-5539,PAYLOAD,2024-07-04 14:24:21,14.9833032,0.0003065,70.0002,350.3357,267.0465,93.0343,5.8636e-05,6.07e-06,0.0,0 STARLINK-5539,1 55747U 23028G   24186.60025113  .00000607  00000-0  58636-4 0  9997,2 55747  70.0002 350.3357 0003065 267.0465  93.0343 14.98330320 74207,6950.192,96.107,574.187,569.927,0.0
55747.0,STARLINK-5539,PAYLOAD,2024-07-04 20:48:53,14.98334929,0.0003064,70.0003,349.6636,270.0351,90.0457,0.00010622,1.175e-05,0.0,0 STARLINK-5539,1 55747U 23028G   24186.86728745  .00001175  00000-0  10622-3 0  9999,2 55747  70.0003 349.6636 0003064 270.0351  90.0457 14.98334929 74242,6950.178,96.107,574.172,569.913,0.0
55747.0,STARLINK-5539,PAYLOAD,2024-07-05 12:50:14,14.98331312,0.0003146,70.0002,347.9805,269.6043,90.4755,6.762e-05,7.14e-06,0.0,0 STARLINK-5539,1 55747U 23028G   24187.53489056  .00000714  00000-0  67620-4 0  9992,2 55747  70.0002 347.9805 0003146 269.6043  90.4755 14.98331312 74342,6950.189,96.107,574.24,569.867,0.0
55747.0,STARLINK-5539,PAYLOAD,2024-07-05 14:26:22,14.98331497,0.0003147,70.0002,347.8122,269.6075,90.4723,6.8283e-05,7.22e-06,0.0,0 STARLINK-5539,1 55747U 23028G   24187.60165038  .00000722  00000-0  68283-4 0  9996,2 55747  70.0002 347.8122 0003147 269.6075  90.4723 14.98331497 74359,6950.188,96.107,574.24,569.866,0.0
55747.0,STARLINK-5539,PAYLOAD,2024-07-05 20:50:54,14.9833833,0.0003118,70.0003,347.1389,269.6773,90.4028,0.00014177,1.599e-05,0.0,0 STARLINK-5539,1 55747U 23028G   24187.86868406  .00001599  00000-0  14177-3 0  9998,2 55747  70.0003 347.1389 0003118 269.6773  90.4028 14.98338330 74396,6950.167,96.106,574.199,569.865,0.0
55747.0,STARLINK-5539,PAYLOAD,2024-07-06 12:52:15,14.98329793,0.0002961,70.0008,345.4556,270.8938,89.1882,3.5884e-06,-5e-07,0.0,0 STARLINK-5539,1 55747U 23028G   24188.53629140 -.00000050  00000-0  35884-5 0  9995,2 55747  70.0008 345.4556 0002961 270.8938  89.1882 14.98329793 74497,6950.194,96.107,574.116,570.001,0.0
55747.0,STARLINK-5539,PAYLOAD,2024-07-06 14:28:23,14.9832953,0.0002966,70.0008,345.2873,270.8958,89.1861,-5.4816e-07,-1e-06,0.0,0 STARLINK-5539,1 55747U 23028G   24188.60305157 -.00000100  00000-0 -54816-6 0  9996,2 55747  70.0008 345.2873 0002966 270.8958  89.1861 14.98329530 74502,6950.194,96.107,574.121,569.998,0.0
55747.0,STARLINK-5539,PAYLOAD,2024-07-06 20:52:55,14.98331644,0.0002955,70.0009,344.6141,270.7523,89.3297,1.7777e-05,1.19e-06,0.0,0 STARLINK-5539,1 55747U 23028G   24188.87008966  .00000119  00000-0  17777-4 0  9994,2 55747  70.0009 344.6141 0002955 270.7523  89.3297 14.98331644 74547,6950.188,96.107,574.107,569.999,0.0
55747.0,STARLINK-5539,PAYLOAD,2024-07-07 12:54:16,14.98333375,0.0002907,70.0011,342.931,271.9078,88.1748,3.3464e-05,3.06e-06,0.0,0 STARLINK-5539,1 55747U 23028G   24189.53768777  .00000306  00000-0  33464-4 0  9990,2 55747  70.0011 342.9310 0002907 271.9078  88.1748 14.98333375 74646,6950.182,96.107,574.068,570.027,0.0
55747.0,STARLINK-5539,PAYLOAD,2024-07-08 12:56:17,14.98326614,0.0002948,70.001,340.4066,268.5198,91.5623,1.9224e-05,1.36e-06,0.0,0 STARLINK-5539,1 55747U 23028G   24190.53909129  .00000136  00000-0  19224-4 0  9999,2 55747  70.0010 340.4066 0002948 268.5198  91.5623 14.98326614 74790,6950.203,96.107,574.117,570.019,0.0
55747.0,STARLINK-5539,PAYLOAD,2024-07-08 14:32:25,14.98326803,0.0002947,70.001,340.2383,268.5751,91.5071,2.0681e-05,1.54e-06,0.0,0 STARLINK-5539,1 55747U 23028G   24190.60585125  .00000154  00000-0  20681-4 0  9992,2 55747  70.0010 340.2383 0002947 268.5751  91.5071 14.98326803 74803,6950.203,96.107,574.116,570.02,0.0
55747.0,STARLINK-5539,PAYLOAD,2024-07-08 20:56:57,14.98332415,0.0002909,70.0012,339.565,267.0865,92.9961,8.2496e-05,8.92e-06,0.0,0 STARLINK-5539,1 55747U 23028G   24190.87288638  .00000892  00000-0  82496-4 0  9991,2 55747  70.0012 339.5650 0002909 267.0865  92.9961 14.98332415 74844,6950.185,96.107,574.072,570.029,0.0
